#aV2022  6 17  0  0  0.00000000     288 DD+AD WGS84 FIT  NGA
## 2214 432000.00000000   300.00000000 59747 0.0000000000000
+   32     1  2  3  4  5  6  7  8  9 10 11 12 13 14 15 16 17
+         18 19 20 21 22 23 24 25 26 27 28 29 30 31 32  0  0
+          0  0  0  0  0  0  0  0  0  0  0  0  0  0  0  0  0
+          0  0  0  0  0  0  0  0  0  0  0  0  0  0  0  0  0
+          0  0  0  0  0  0  0  0  0  0  0  0  0  0  0  0  0
++         2  2  2  2  2  2  2  2  2  2  2  2  2  2  2  2  2
++         2  2  2  2  2  2  2  2  2  2  2  2  2  2  2  0  0
++         0  0  0  0  0  0  0  0  0  0  0  0  0  0  0  0  0
++         0  0  0  0  0  0  0  0  0  0  0  0  0  0  0  0  0
++         0  0  0  0  0  0  0  0  0  0  0  0  0  0  0  0  0
%c cc cc ccc ccc cccc cccc cccc cccc ccccc ccccc ccccc ccccc
%c cc cc ccc ccc cccc cccc cccc cccc ccccc ccccc ccccc ccccc
%f  0.0000000  0.000000000  0.00000000000  0.000000000000000
%f  0.0000000  0.000000000  0.00000000000  0.000000000000000
%i    0    0    0    0      0      0      0      0         0
%i    0    0    0    0      0      0      0      0         0
/*      NGA, ST. LOUIS,MO.                                  
/*   EPHEMERIS COMPUTED FROM 2 DAYS OF DATA                 
/*   EPOCHA v7 SMOOTHER                                     
/*   G2139 IERS2010 SATIGS SATAPC                           
*  2022  6 17 17 25  0.00000000
P  1  21951.158299  13576.505586   6694.628217    339.342085                    
V  1   5496.550798   7070.028389 -30612.720954     -0.078328                    
P  2 -11135.908793 -20081.307440  13862.249359   -652.586708                    
V  2  14537.631729   8211.138471  24897.897889      0.003890                    
P  3  13329.349224   7896.758180  21473.976732   -281.520982                    
V  3  -5577.452018  26909.783555  -6287.338021     -0.117125                    
P  4  22397.695419   3265.843318  13977.295841   -156.018380                    
V  4 -16280.076807   7247.093778  24325.109207      0.040996                    
P  5  -7046.210574 -21196.891748 -14427.118366    -85.880053                    
V  5   4768.489799 -17578.310025  23919.971021     -0.013711                    
P  6   3269.922653 -15725.117731  21197.562232    347.597417                    
V  6  20535.661335  17107.669007   9625.208336      0.156070                    
P  7  19337.367133   -209.194389 -18008.036176    321.597285                    
V  7  16738.517156  16643.229862  16898.941065     -0.006037                    
P  8  16469.380804   8194.479907 -19327.531662    -72.551504                    
V  8 -22411.261294   9527.669829 -14742.826448     -0.015284                    
P  9  25467.826074  -5706.109831   4942.786602   -327.518686                    
V  9  -4943.072220   4961.820859  30757.308244      0.034033                    
P 10 -11457.062913  21121.642504 -10834.541186   -458.613196                    
V 10    302.202909 -14251.587570 -28012.932100     -0.147018                    
P 11  -9165.886491 -21319.544139  12932.575596    -14.467930                    
V 11  13352.250980   9805.651261  25595.219455      0.024534                    
P 12 -11182.469129 -12434.177882  20395.550570   -232.611298                    
V 12   7634.904202 -25336.633395 -11009.748838     -0.058679                    
P 13  -6410.815191 -14000.163636 -21809.839175    331.726867                    
V 13  26692.496164  -5665.048214  -4067.029815      0.069924                    
P 14  13143.939638 -19790.527271 -11774.533487   -111.635225                    
V 14   -777.704392  15217.572745 -26538.166839     -0.005589                    
P 15 -17751.597474  -6964.138405 -19021.743926    -52.485988                    
V 15  20157.291772 -11786.438513 -14509.185521      0.030037                    
P 16    916.267417  24080.498198 -10906.199290   -509.617479                    
V 16  -6122.901857  12384.529424  27963.326978     -0.026749                    
P 17  19717.196992 -13759.022890  11771.577655    626.192121                    
V 17  14184.348823  -2147.945448 -27223.487309      0.045831                    
P 18 -18983.589780     54.371487 -18635.536572    139.423893                    
V 18 -16705.036942 -16673.391014  16864.228492     -0.108512                    
P 19  12879.355356 -15018.093105  17352.538696    171.961370                    
V 19  22365.153263  -3564.669259 -19612.664841      0.050208                    
P 20  -1546.074627 -26441.971437  -3242.478755    510.620540                    
V 20   3245.624237  -4007.301491  30869.419716     -0.031526                    
P 21  20687.680334  17021.146666  -2178.304373    161.311263                    
V 21  -4156.168986   -209.690733 -31137.553416     -0.000098                    
P 22  -9519.403819  16229.033787  19095.904338    277.385972                    
V 22 -23037.486880   4519.280561 -15845.578290      0.063189                    
P 23 -14827.933987  11776.750360 -18590.998155    -28.523698                    
V 23   2385.699935 -23520.863854 -16916.445880     -0.020463                    
P 24 -22359.384726 -14574.365011   1968.995993    218.576449                    
V 24   -332.693862  -4349.021859 -30750.519123     -0.085741                    
P 25 -15593.325022   3305.554553  20915.256418    338.523936                    
V 25   4081.537650 -26996.000785   7476.460496      0.046171                    
P 26  -3829.467340  26104.509675    492.942822    212.931320                    
V 26  -3695.761211  -1232.621586  31424.755847      0.023480                    
P 27   2991.658950  14859.655909 -22002.376602    216.238874                    
V 27 -25993.686548   8720.262655   2761.563651      0.030664                    
P 28   9098.165585 -24884.566942  -2664.590195    336.524778                    
V 28   1209.981128   4494.481688 -31536.503176     -0.072260                    
P 29 -25938.329844   3847.482794   4413.204082   -524.982740                    
V 29   4918.161941  -3476.076488  31489.359030     -0.037030                    
P 30  12366.192463  -9939.473616 -21230.090299   -531.658291                    
V 30  20170.015690  18312.493570   2908.634711     -0.011178                    
P 31  -1596.154857  17403.205209  19733.349645   -182.189746                    
V 31 -19898.162335 -16021.159408  12892.877360     -0.015360                    
P 32 -16962.862474  15759.274281  12988.304622   -153.598103                    
V 32 -16197.167128   3212.338941 -25526.418384     -0.094019                    
EOF
